[{"OBJECT_NAME":"STARLINK-4387","OBJECT_ID":"2022-099AB","EPOCH":"2026-03-09T20:43:07.675392","MEAN_MOTION":15.05654358,"ECCENTRICITY":2.743e-5,"INCLINATION":97.6033,"RA_OF_ASC_NODE":191.3681,"ARG_OF_PERICENTER":184.5182,"MEAN_ANOMALY":175.6043,"EPHEMERIS_TYPE":0,"CLASSIFICATION_TYPE":"U","NORAD_CAT_ID":53490,"ELEMENT_SET_NO":999,"REV_AT_EPOCH":19606,"BSTAR":-3.5840466e-5,"MEAN_MOTION_DOT":-5.78e-6,"MEAN_MOTION_DDOT":0},{"OBJECT_NAME":"STARLINK-5895","OBJECT_ID":"2023-037BC","EPOCH":"2026-03-09T22:23:45.381696","MEAN_MOTION":15.07243555,"ECCENTRICITY":0.00049855,"INCLINATION":69.9972,"RA_OF_ASC_NODE":260.028,"ARG_OF_PERICENTER":264.4993,"MEAN_ANOMALY":95.5602,"EPHEMERIS_TYPE":0,"CLASSIFICATION_TYPE":"U","NORAD_CAT_ID":55964,"ELEMENT_SET_NO":999,"REV_AT_EPOCH":16460,"BSTAR":0.00072849946,"MEAN_MOTION_DOT":0.00010921,"MEAN_MOTION_DDOT":0}]
