STARLINK-4387           
1 53490U 22099AB  26068.86328328 -.00000578  00000+0 -35840-4 0  9990
2 53490  97.6033 191.3681 0000274 184.5182 175.6043 15.05654358196062
STARLINK-5895           
1 55964U 23037BC  26068.93316413  .00010921  00000+0  72850-3 0  9993
2 55964  69.9972 260.0280 0004986 264.4993  95.5602 15.07243555164606
